TEVEL2-9                
1 63237U 25052AD  26068.70229538  .00018694  00000+0  67240-3 0  9992
2 63237  97.4057 324.3929 0007990 124.2475 235.9522 15.28633834 54816
STARLINK-34066          
1 63909U 25095V   26068.34532877  .00044320  00000+0  16072-2 0  9999
2 63909  43.0035 178.2952 0003444 288.9698  71.0780 15.27642769 47725
